{
  "norad_id": 63556,
  "name": "STARLINK-11626 [DTC]",
  "history": [
    {
      "epoch": "2026-03-28T13:40:41.067264Z",
      "apogee_km": 357.6813363126121,
      "perigee_km": 354.9027108974715,
      "latitude_deg": -5.767448911147417e-06,
      "longitude_deg": 9.225005904037307,
      "height_km": 355.07663406995897,
      "semi_major_axis_km": 6734.429023605041,
      "eccentricity": 0.0002063,
      "inclination_deg": 43.001,
      "raan_deg": 40.3846,
      "arg_perigee_deg": 44.838,
      "mean_anomaly_deg": 315.2654,
      "mean_motion_rev_day": 15.7091104
    },
    {
      "epoch": "2026-03-29T04:56:15.350208Z",
      "apogee_km": 358.39339715845836,
      "perigee_km": 353.82623096915995,
      "latitude_deg": 9.331979530163428e-06,
      "longitude_deg": 135.87248999852943,
      "height_km": 356.0262867403346,
      "semi_major_axis_km": 6734.246814063809,
      "eccentricity": 0.0003391,
      "inclination_deg": 43.0014,
      "raan_deg": 36.5516,
      "arg_perigee_deg": 266.4219,
      "mean_anomaly_deg": 93.6261,
      "mean_motion_rev_day": 15.70974797
    },
    {
      "epoch": "2026-03-30T03:49:39.701856Z",
      "apogee_km": 358.0020051557385,
      "perigee_km": 354.8313772779129,
      "latitude_deg": -3.424055413708945e-05,
      "longitude_deg": 145.8316160164981,
      "height_km": 356.5376044513011,
      "semi_major_axis_km": 6734.553691216825,
      "eccentricity": 0.0002354,
      "inclination_deg": 43.0008,
      "raan_deg": 30.8023,
      "arg_perigee_deg": 257.3293,
      "mean_anomaly_deg": 102.7311,
      "mean_motion_rev_day": 15.7086742
    },
    {
      "epoch": "2026-03-30T12:59:02.020704Z",
      "apogee_km": 357.0863027813457,
      "perigee_km": 355.69777758384043,
      "latitude_deg": 1.9893274988283247e-05,
      "longitude_deg": 5.813747222104115,
      "height_km": 356.20663513990286,
      "semi_major_axis_km": 6734.529040182592,
      "eccentricity": 0.00010309,
      "inclination_deg": 43.0007,
      "raan_deg": 28.5034,
      "arg_perigee_deg": 266.4988,
      "mean_anomaly_deg": 93.5762,
      "mean_motion_rev_day": 15.70876045
    },
    {
      "epoch": "2026-03-31T19:30:13.503456Z",
      "apogee_km": 357.1707498364858,
      "perigee_km": 355.12218080633556,
      "latitude_deg": 9.412316751390071e-06,
      "longitude_deg": -100.90291304358055,
      "height_km": 356.5135010218051,
      "semi_major_axis_km": 6734.28346532141,
      "eccentricity": 0.0001521,
      "inclination_deg": 43.0001,
      "raan_deg": 20.838,
      "arg_perigee_deg": 234.4994,
      "mean_anomaly_deg": 125.5732,
      "mean_motion_rev_day": 15.70961972
    },
    {
      "epoch": "2026-04-01T12:17:23.707680Z",
      "apogee_km": 356.74451961047635,
      "perigee_km": 355.73570991868473,
      "latitude_deg": -1.39349575713528e-05,
      "longitude_deg": 2.3997619377625283,
      "height_km": 355.52022935148256,
      "semi_major_axis_km": 6734.37711476458,
      "eccentricity": 7.49e-05,
      "inclination_deg": 43.0003,
      "raan_deg": 16.6226,
      "arg_perigee_deg": 13.2594,
      "mean_anomaly_deg": 346.8293,
      "mean_motion_rev_day": 15.70929203
    },
    {
      "epoch": "2026-04-02T11:10:47.610912Z",
      "apogee_km": 357.8747546348586,
      "perigee_km": 354.6099275303013,
      "latitude_deg": -5.239081452135135e-05,
      "longitude_deg": 12.359567268231558,
      "height_km": 354.9952928619799,
      "semi_major_axis_km": 6734.379341082579,
      "eccentricity": 0.0002424,
      "inclination_deg": 43.0018,
      "raan_deg": 10.8721,
      "arg_perigee_deg": 51.4922,
      "mean_anomaly_deg": 308.6162,
      "mean_motion_rev_day": 15.70928424
    },
    {
      "epoch": "2026-04-03T19:13:30.609408Z",
      "apogee_km": 357.55908851776803,
      "perigee_km": 354.41559927403705,
      "latitude_deg": -1.0538486698571357e-06,
      "longitude_deg": -117.68009085689651,
      "height_km": 356.11121506780654,
      "semi_major_axis_km": 6734.124343895903,
      "eccentricity": 0.0002334,
      "inclination_deg": 43.0003,
      "raan_deg": 2.8276,
      "arg_perigee_deg": 257.1041,
      "mean_anomaly_deg": 102.9566,
      "mean_motion_rev_day": 15.71017653
    },
    {
      "epoch": "2026-04-04T18:06:54.504000Z",
      "apogee_km": 356.60224434201064,
      "perigee_km": 355.3550861208096,
      "latitude_deg": -5.861392957936688e-05,
      "longitude_deg": -107.72117146543997,
      "height_km": 355.79928335582474,
      "semi_major_axis_km": 6734.115665231409,
      "eccentricity": 9.26e-05,
      "inclination_deg": 42.9985,
      "raan_deg": 357.0762,
      "arg_perigee_deg": 265.5142,
      "mean_anomaly_deg": 94.5619,
      "mean_motion_rev_day": 15.7102069
    },
    {
      "epoch": "2026-04-05T01:44:42.391104Z",
      "apogee_km": 357.71174655308823,
      "perigee_km": 355.3598641160097,
      "latitude_deg": -2.736223345564547e-05,
      "longitude_deg": 135.60018022227916,
      "height_km": 356.1957682995885,
      "semi_major_axis_km": 6734.672805334549,
      "eccentricity": 0.00017461,
      "inclination_deg": 43.0002,
      "raan_deg": 355.1604,
      "arg_perigee_deg": 275.5045,
      "mean_anomaly_deg": 84.5623,
      "mean_motion_rev_day": 15.70825745
    },
    {
      "epoch": "2026-04-05T18:31:53.150880Z",
      "apogee_km": 357.5750279786862,
      "perigee_km": 354.79913959135047,
      "latitude_deg": 5.116356515160644e-05,
      "longitude_deg": -121.100559447971,
      "height_km": 356.5533885546632,
      "semi_major_axis_km": 6734.324083785018,
      "eccentricity": 0.0002061,
      "inclination_deg": 42.9991,
      "raan_deg": 350.9438,
      "arg_perigee_deg": 244.6752,
      "mean_anomaly_deg": 115.3903,
      "mean_motion_rev_day": 15.70947759
    },
    {
      "epoch": "2026-04-06T02:09:41.133888Z",
      "apogee_km": 357.3997123783802,
      "perigee_km": 355.2802377847829,
      "latitude_deg": 4.7510577196088957e-05,
      "longitude_deg": 122.2204540516977,
      "height_km": 356.2694783028251,
      "semi_major_axis_km": 6734.476975081581,
      "eccentricity": 0.00015736,
      "inclination_deg": 43.0,
      "raan_deg": 349.0281,
      "arg_perigee_deg": 261.4824,
      "mean_anomaly_deg": 98.5866,
      "mean_motion_rev_day": 15.70894262
    }
  ]
}